CCSDS_OMM_VERS = 2.0
CREATION_DATE  = 
ORIGINATOR     = 

OBJECT_NAME    = COSMOS 2058
OBJECT_ID      = 1990-010A
CENTER_NAME    = EARTH
REF_FRAME      = TEME
TIME_SYSTEM    = UTC
MEAN_ELEMENT_THEORY = SGP/SGP4

EPOCH          = 2026-03-26T06:22:47.072640
MEAN_MOTION    = 15.11465822
ECCENTRICITY   = .0007437
INCLINATION    = 82.4683
RA_OF_ASC_NODE = 31.0934
ARG_OF_PERICENTER = 279.6931
MEAN_ANOMALY   = 80.3459

EPHEMERIS_TYPE = 0
CLASSIFICATION_TYPE = U
NORAD_CAT_ID   = 20465
ELEMENT_SET_NO = 999
REV_AT_EPOCH   = 94474
BSTAR          = .26738666E-3
MEAN_MOTION_DOT = .4552E-4
MEAN_MOTION_DDOT = 0

CCSDS_OMM_VERS = 2.0
CREATION_DATE  = 
ORIGINATOR     = 

OBJECT_NAME    = SL-14 R/B
OBJECT_ID      = 1990-010B
CENTER_NAME    = EARTH
REF_FRAME      = TEME
TIME_SYSTEM    = UTC
MEAN_ELEMENT_THEORY = SGP/SGP4

EPOCH          = 2026-03-25T22:35:42.124128
MEAN_MOTION    = 14.83583098
ECCENTRICITY   = .0018465
INCLINATION    = 82.4992
RA_OF_ASC_NODE = 252.1182
ARG_OF_PERICENTER = 244.5080
MEAN_ANOMALY   = 115.4226

EPHEMERIS_TYPE = 0
CLASSIFICATION_TYPE = U
NORAD_CAT_ID   = 20466
ELEMENT_SET_NO = 999
REV_AT_EPOCH   = 93089
BSTAR          = .56574E-4
MEAN_MOTION_DOT = .491E-5
MEAN_MOTION_DDOT = 0

CCSDS_OMM_VERS = 2.0
CREATION_DATE  = 
ORIGINATOR     = 

OBJECT_NAME    = SL-14 R/B
OBJECT_ID      = 1990-018B
CENTER_NAME    = EARTH
REF_FRAME      = TEME
TIME_SYSTEM    = UTC
MEAN_ELEMENT_THEORY = SGP/SGP4

EPOCH          = 2026-03-26T07:29:54.816000
MEAN_MOTION    = 14.82161042
ECCENTRICITY   = .00171227
INCLINATION    = 82.5233
RA_OF_ASC_NODE = 207.5551
ARG_OF_PERICENTER = 41.4154
MEAN_ANOMALY   = 318.8355

EPHEMERIS_TYPE = 0
CLASSIFICATION_TYPE = U
NORAD_CAT_ID   = 20511
ELEMENT_SET_NO = 999
REV_AT_EPOCH   = 92504
BSTAR          = .55348634E-4
MEAN_MOTION_DOT = .465E-5
MEAN_MOTION_DDOT = 0

CCSDS_OMM_VERS = 2.0
CREATION_DATE  = 
ORIGINATOR     = 

OBJECT_NAME    = HST
OBJECT_ID      = 1990-037B
CENTER_NAME    = EARTH
REF_FRAME      = TEME
TIME_SYSTEM    = UTC
MEAN_ELEMENT_THEORY = SGP/SGP4

EPOCH          = 2026-03-26T06:05:32.779968
MEAN_MOTION    = 15.29731597
ECCENTRICITY   = .00015734
INCLINATION    = 28.4723
RA_OF_ASC_NODE = 286.9845
ARG_OF_PERICENTER = 319.9838
MEAN_ANOMALY   = 40.0642

EPHEMERIS_TYPE = 0
CLASSIFICATION_TYPE = U
NORAD_CAT_ID   = 20580
ELEMENT_SET_NO = 999
REV_AT_EPOCH   = 77585
BSTAR          = .23705744E-3
MEAN_MOTION_DOT = .7258E-4
MEAN_MOTION_DDOT = 0

CCSDS_OMM_VERS = 2.0
CREATION_DATE  = 
ORIGINATOR     = 

OBJECT_NAME    = SL-16 R/B
OBJECT_ID      = 1990-046B
CENTER_NAME    = EARTH
REF_FRAME      = TEME
TIME_SYSTEM    = UTC
MEAN_ELEMENT_THEORY = SGP/SGP4

EPOCH          = 2026-03-25T22:57:05.959872
MEAN_MOTION    = 14.15014109
ECCENTRICITY   = .00162969
INCLINATION    = 70.9952
RA_OF_ASC_NODE = 263.7481
ARG_OF_PERICENTER = 278.3361
MEAN_ANOMALY   = 81.5914

EPHEMERIS_TYPE = 0
CLASSIFICATION_TYPE = U
NORAD_CAT_ID   = 20625
ELEMENT_SET_NO = 999
REV_AT_EPOCH   = 85069
BSTAR          = .1245971E-3
MEAN_MOTION_DOT = .194E-5
MEAN_MOTION_DDOT = 0

CCSDS_OMM_VERS = 2.0
CREATION_DATE  = 
ORIGINATOR     = 

OBJECT_NAME    = COSMOS 2084
OBJECT_ID      = 1990-055A
CENTER_NAME    = EARTH
REF_FRAME      = TEME
TIME_SYSTEM    = UTC
MEAN_ELEMENT_THEORY = SGP/SGP4

EPOCH          = 2026-03-26T06:12:28.565280
MEAN_MOTION    = 15.05737838
ECCENTRICITY   = .00144635
INCLINATION    = 62.7892
RA_OF_ASC_NODE = 279.0621
ARG_OF_PERICENTER = 195.0020
MEAN_ANOMALY   = 165.0653

EPHEMERIS_TYPE = 0
CLASSIFICATION_TYPE = U
NORAD_CAT_ID   = 20663
ELEMENT_SET_NO = 999
REV_AT_EPOCH   = 93881
BSTAR          = .17403497E-3
MEAN_MOTION_DOT = .2334E-4
MEAN_MOTION_DDOT = 0

CCSDS_OMM_VERS = 2.0
CREATION_DATE  = 
ORIGINATOR     = 

OBJECT_NAME    = SL-6 R/B(2)
OBJECT_ID      = 1990-055D
CENTER_NAME    = EARTH
REF_FRAME      = TEME
TIME_SYSTEM    = UTC
MEAN_ELEMENT_THEORY = SGP/SGP4

EPOCH          = 2026-03-26T04:44:25.356480
MEAN_MOTION    = 15.03672611
ECCENTRICITY   = .00275006
INCLINATION    = 62.7831
RA_OF_ASC_NODE = 197.7089
ARG_OF_PERICENTER = 350.8432
MEAN_ANOMALY   = 9.2162

EPHEMERIS_TYPE = 0
CLASSIFICATION_TYPE = U
NORAD_CAT_ID   = 20666
ELEMENT_SET_NO = 999
REV_AT_EPOCH   = 94067
BSTAR          = .15347498E-3
MEAN_MOTION_DOT = .1926E-4
MEAN_MOTION_DDOT = 0

CCSDS_OMM_VERS = 2.0
CREATION_DATE  = 
ORIGINATOR     = 

OBJECT_NAME    = SL-8 R/B
OBJECT_ID      = 1990-078B
CENTER_NAME    = EARTH
REF_FRAME      = TEME
TIME_SYSTEM    = UTC
MEAN_ELEMENT_THEORY = SGP/SGP4

EPOCH          = 2026-03-25T21:37:59.767680
MEAN_MOTION    = 14.89557012
ECCENTRICITY   = .0358956
INCLINATION    = 82.9019
RA_OF_ASC_NODE = 236.7224
ARG_OF_PERICENTER = 319.3529
MEAN_ANOMALY   = 38.1387

EPHEMERIS_TYPE = 0
CLASSIFICATION_TYPE = U
NORAD_CAT_ID   = 20775
ELEMENT_SET_NO = 999
REV_AT_EPOCH   = 81171
BSTAR          = .37578E-3
MEAN_MOTION_DOT = .12696E-3
MEAN_MOTION_DDOT = 0

CCSDS_OMM_VERS = 2.0
CREATION_DATE  = 
ORIGINATOR     = 

OBJECT_NAME    = SL-8 R/B
OBJECT_ID      = 1991-006B
CENTER_NAME    = EARTH
REF_FRAME      = TEME
TIME_SYSTEM    = UTC
MEAN_ELEMENT_THEORY = SGP/SGP4

EPOCH          = 2026-03-26T07:59:36.696768
MEAN_MOTION    = 13.77496692
ECCENTRICITY   = .00220093
INCLINATION    = 82.9449
RA_OF_ASC_NODE = 157.6726
ARG_OF_PERICENTER = 352.2982
MEAN_ANOMALY   = 80.3254

EPHEMERIS_TYPE = 0
CLASSIFICATION_TYPE = U
NORAD_CAT_ID   = 21088
ELEMENT_SET_NO = 999
REV_AT_EPOCH   = 76636
BSTAR          = .6272087E-4
MEAN_MOTION_DOT = .78E-6
MEAN_MOTION_DDOT = 0

CCSDS_OMM_VERS = 2.0
CREATION_DATE  = 
ORIGINATOR     = 

OBJECT_NAME    = OKEAN-3
OBJECT_ID      = 1991-039A
CENTER_NAME    = EARTH
REF_FRAME      = TEME
TIME_SYSTEM    = UTC
MEAN_ELEMENT_THEORY = SGP/SGP4

EPOCH          = 2026-03-26T02:28:04.010880
MEAN_MOTION    = 15.04900323
ECCENTRICITY   = .00123432
INCLINATION    = 82.5165
RA_OF_ASC_NODE = 320.9416
ARG_OF_PERICENTER = 275.8889
MEAN_ANOMALY   = 84.0931

EPHEMERIS_TYPE = 0
CLASSIFICATION_TYPE = U
NORAD_CAT_ID   = 21397
ELEMENT_SET_NO = 999
REV_AT_EPOCH   = 86750
BSTAR          = .13267974E-3
MEAN_MOTION_DOT = .1907E-4
MEAN_MOTION_DDOT = 0

CCSDS_OMM_VERS = 2.0
CREATION_DATE  = 
ORIGINATOR     = 

OBJECT_NAME    = COSMOS 2151
OBJECT_ID      = 1991-042A
CENTER_NAME    = EARTH
REF_FRAME      = TEME
TIME_SYSTEM    = UTC
MEAN_ELEMENT_THEORY = SGP/SGP4

EPOCH          = 2026-03-26T05:24:42.921792
MEAN_MOTION    = 15.00172076
ECCENTRICITY   = .00127359
INCLINATION    = 82.4944
RA_OF_ASC_NODE = 67.7201
ARG_OF_PERICENTER = 11.9905
MEAN_ANOMALY   = 348.1619

EPHEMERIS_TYPE = 0
CLASSIFICATION_TYPE = U
NORAD_CAT_ID   = 21422
ELEMENT_SET_NO = 999
REV_AT_EPOCH   = 86567
BSTAR          = .20439603E-3
MEAN_MOTION_DOT = .2582E-4
MEAN_MOTION_DDOT = 0

CCSDS_OMM_VERS = 2.0
CREATION_DATE  = 
ORIGINATOR     = 

OBJECT_NAME    = SL-14 R/B
OBJECT_ID      = 1991-042B
CENTER_NAME    = EARTH
REF_FRAME      = TEME
TIME_SYSTEM    = UTC
MEAN_ELEMENT_THEORY = SGP/SGP4

EPOCH          = 2026-03-26T07:14:07.980000
MEAN_MOTION    = 14.81845873
ECCENTRICITY   = .00169939
INCLINATION    = 82.4953
RA_OF_ASC_NODE = 204.6078
ARG_OF_PERICENTER = 181.6215
MEAN_ANOMALY   = 178.4947

EPHEMERIS_TYPE = 0
CLASSIFICATION_TYPE = U
NORAD_CAT_ID   = 21423
ELEMENT_SET_NO = 999
REV_AT_EPOCH   = 85553
BSTAR          = .57846543E-4
MEAN_MOTION_DOT = .481E-5
MEAN_MOTION_DDOT = 0

